start=new Date('2022-03-04T00:00:00.000Z').valueOf();
sats=[{"RCS_SIZE":"LARGE","OBJECT_TYPE":"PAYLOAD","EPHEMERIS_TYPE":"0","CLASSIFICATION_TYPE":"U","MEAN_MOTION_DDOT":"0.0000000000000","INCLINATION":"53.0535","REV_AT_EPOCH":"5939","MEAN_ELEMENT_THEORY":"SGP4","MEAN_ANOMALY":"310.1096","TLE_LINE1":"1 47593U 21009AX  22062.61678204  .00001563  00000-0  12381-3 0  9999","REF_FRAME":"TEME","DECAY_DATE":null,"LAUNCH_DATE":"2021-02-04","COUNTRY_CODE":"US","APOAPSIS":"548.478","NORAD_CAT_ID":"47593","EPOCH":"2022-03-03T14:48:09.968256","CENTER_NAME":"EARTH","PERIOD":"95.592","TIME_SYSTEM":"UTC","ELEMENT_SET_NO":"999","RA_OF_ASC_NODE":"147.5619","OBJECT_ID":"2021-009AX","ARG_OF_PERICENTER":"50.0055","SEMIMAJOR_AXIS":"6925.334","FILE":"3343255","BSTAR":"0.00012381000000","MEAN_MOTION_DOT":"0.00001563","ECCENTRICITY":"0.00018470","OBJECT_NAME":"STARLINK-1998","TLE_LINE2":"2 47593  53.0535 147.5619 0001847  50.0055 310.1096 15.06404679 59397","GP_ID":"197767814","SITE":"AFETR","PERIAPSIS":"545.920","MEAN_MOTION":"15.06404679"},{"MEAN_ELEMENT_THEORY":"SGP4","REV_AT_EPOCH":"5937","INCLINATION":"53.0540","MEAN_MOTION_DDOT":"0.0000000000000","APOAPSIS":"548.316","TLE_LINE1":"1 47594U 21009AY  22062.51726971 -.00001568  00000-0 -86360-4 0  9990","LAUNCH_DATE":"2021-02-04","DECAY_DATE":null,"COUNTRY_CODE":"US","REF_FRAME":"TEME","MEAN_ANOMALY":"299.8383","OBJECT_TYPE":"PAYLOAD","RCS_SIZE":"LARGE","CLASSIFICATION_TYPE":"U","EPHEMERIS_TYPE":"0","TIME_SYSTEM":"UTC","RA_OF_ASC_NODE":"148.0224","ELEMENT_SET_NO":"999","EPOCH":"2022-03-03T12:24:52.102944","NORAD_CAT_ID":"47594","PERIOD":"95.592","CENTER_NAME":"EARTH","ARG_OF_PERICENTER":"60.2766","SEMIMAJOR_AXIS":"6925.334","OBJECT_ID":"2021-009AY","SITE":"AFETR","PERIAPSIS":"546.081","TLE_LINE2":"2 47594  53.0540 148.0224 0001614  60.2766 299.8383 15.06404905 59378","GP_ID":"197707646","MEAN_MOTION":"15.06404905","BSTAR":"-0.00008636000000","FILE":"3342689","OBJECT_NAME":"STARLINK-1999","MEAN_MOTION_DOT":"-0.00001568","ECCENTRICITY":"0.00016140"},{"EPOCH":"2022-03-03T15:14:42.621792","NORAD_CAT_ID":"47595","PERIOD":"95.592","CENTER_NAME":"EARTH","TIME_SYSTEM":"UTC","RA_OF_ASC_NODE":"147.4953","ELEMENT_SET_NO":"999","RCS_SIZE":"LARGE","OBJECT_TYPE":"PAYLOAD","CLASSIFICATION_TYPE":"U","EPHEMERIS_TYPE":"0","MEAN_ELEMENT_THEORY":"SGP4","REV_AT_EPOCH":"5939","INCLINATION":"53.0536","MEAN_MOTION_DDOT":"0.0000000000000","APOAPSIS":"548.404","TLE_LINE1":"1 47595U 21009AZ  22062.63521553  .00002954  00000-0  21714-3 0  9992","DECAY_DATE":null,"COUNTRY_CODE":"US","LAUNCH_DATE":"2021-02-04","REF_FRAME":"TEME","MEAN_ANOMALY":"289.7955","BSTAR":"0.00021714000000","FILE":"3343255","OBJECT_NAME":"STARLINK-2000","MEAN_MOTION_DOT":"0.00002954","ECCENTRICITY":"0.00017350","SITE":"AFETR","PERIAPSIS":"546.001","TLE_LINE2":"2 47595  53.0536 147.4953 0001735  70.3221 289.7955 15.06403468 59396","GP_ID":"197766813","MEAN_MOTION":"15.06403468","ARG_OF_PERICENTER":"70.3221","SEMIMAJOR_AXIS":"6925.338","OBJECT_ID":"2021-009AZ"},{"OBJECT_ID":"2021-009BA","SEMIMAJOR_AXIS":"6925.364","ARG_OF_PERICENTER":"64.8215","MEAN_MOTION_DOT":"0.00001045","ECCENTRICITY":"0.00015970","OBJECT_NAME":"STARLINK-2001","FILE":"3343255","BSTAR":"0.00008903000000","MEAN_MOTION":"15.06394964","TLE_LINE2":"2 47596  53.0539 147.4720 0001597  64.8215 295.2940 15.06394964 59395","GP_ID":"197767063","SITE":"AFETR","PERIAPSIS":"546.123","EPHEMERIS_TYPE":"0","CLASSIFICATION_TYPE":"U","OBJECT_TYPE":"PAYLOAD","RCS_SIZE":"LARGE","MEAN_ANOMALY":"295.2940","REF_FRAME":"TEME","TLE_LINE1":"1 47596U 21009BA  22062.63889377  .00001045  00000-0  89030-4 0  9990","DECAY_DATE":null,"LAUNCH_DATE":"2021-02-04","COUNTRY_CODE":"US","APOAPSIS":"548.335","MEAN_MOTION_DDOT":"0.0000000000000","INCLINATION":"53.0539","REV_AT_EPOCH":"5939","MEAN_ELEMENT_THEORY":"SGP4","CENTER_NAME":"EARTH","PERIOD":"95.592","NORAD_CAT_ID":"47596","EPOCH":"2022-03-03T15:20:00.421728","ELEMENT_SET_NO":"999","RA_OF_ASC_NODE":"147.4720","TIME_SYSTEM":"UTC"},{"RA_OF_ASC_NODE":"147.2087","ELEMENT_SET_NO":"999","TIME_SYSTEM":"UTC","PERIOD":"95.592","CENTER_NAME":"EARTH","EPOCH":"2022-03-03T16:44:56.467392","NORAD_CAT_ID":"47597","APOAPSIS":"548.245","LAUNCH_DATE":"2021-02-04","TLE_LINE1":"1 47597U 21009BB  22062.69787578  .00001787  00000-0  13880-3 0  9999","DECAY_DATE":null,"REF_FRAME":"TEME","COUNTRY_CODE":"US","MEAN_ANOMALY":"296.5180","MEAN_ELEMENT_THEORY":"SGP4","REV_AT_EPOCH":"5940","INCLINATION":"53.0535","MEAN_MOTION_DDOT":"0.0000000000000","CLASSIFICATION_TYPE":"U","EPHEMERIS_TYPE":"0","RCS_SIZE":"LARGE","OBJECT_TYPE":"PAYLOAD","MEAN_MOTION":"15.06402567","PERIAPSIS":"546.166","SITE":"AFETR","GP_ID":"197768315","TLE_LINE2":"2 47597  53.0535 147.2087 0001501  63.5963 296.5180 15.06402567 59408","OBJECT_NAME":"STARLINK-2002","ECCENTRICITY":"0.00015010","MEAN_MOTION_DOT":"0.00001787","BSTAR":"0.00013880000000","FILE":"3343255","SEMIMAJOR_AXIS":"6925.341","ARG_OF_PERICENTER":"63.5963","OBJECT_ID":"2021-009BB"},{"CLASSIFICATION_TYPE":"U","EPHEMERIS_TYPE":"0","RCS_SIZE":"LARGE","OBJECT_TYPE":"PAYLOAD","APOAPSIS":"548.239","MEAN_ANOMALY":"299.8405","TLE_LINE1":"1 47598U 21009BC  22062.84070770  .00001360  00000-0  11018-3 0  9994","DECAY_DATE":null,"LAUNCH_DATE":"2021-02-04","COUNTRY_CODE":"US","REF_FRAME":"TEME","MEAN_ELEMENT_THEORY":"SGP4","REV_AT_EPOCH":"5985","MEAN_MOTION_DDOT":"0.0000000000000","INCLINATION":"53.0556","PERIOD":"95.592","CENTER_NAME":"EARTH","NORAD_CAT_ID":"47598","EPOCH":"2022-03-03T20:10:37.145280","RA_OF_ASC_NODE":"116.5690","ELEMENT_SET_NO":"999","TIME_SYSTEM":"UTC","ARG_OF_PERICENTER":"60.2731","SEMIMAJOR_AXIS":"6925.349","OBJECT_ID":"2021-009BC","OBJECT_NAME":"STARLINK-2003","MEAN_MOTION_DOT":"0.00001360","ECCENTRICITY":"0.00014800","FILE":"3343255","BSTAR":"0.00011018000000","MEAN_MOTION":"15.06399995","PERIAPSIS":"546.189","SITE":"AFETR","TLE_LINE2":"2 47598  53.0556 116.5690 0001480  60.2731 299.8405 15.06399995 59859","GP_ID":"197768065"},{"MEAN_MOTION":"15.06402671","TLE_LINE2":"2 47599  53.0542 106.6104 0001646  55.7287 304.3858 15.06402671 59988","GP_ID":"197767314","PERIAPSIS":"546.065","SITE":"AFETR","MEAN_MOTION_DOT":"0.00001050","ECCENTRICITY":"0.00016460","OBJECT_NAME":"STARLINK-2004","FILE":"3343255","BSTAR":"0.00008936000000","OBJECT_ID":"2021-009BD","SEMIMAJOR_AXIS":"6925.340","ARG_OF_PERICENTER":"55.7287","ELEMENT_SET_NO":"999","RA_OF_ASC_NODE":"106.6104","TIME_SYSTEM":"UTC","CENTER_NAME":"EARTH","PERIOD":"95.592","NORAD_CAT_ID":"47599","EPOCH":"2022-03-03T19:56:01.225536","MEAN_ANOMALY":"304.3858","TLE_LINE1":"1 47599U 21009BD  22062.83056974  .00001050  00000-0  89360-4 0  9996","DECAY_DATE":null,"COUNTRY_CODE":"US","LAUNCH_DATE":"2021-02-04","REF_FRAME":"TEME","APOAPSIS":"548.345","MEAN_MOTION_DDOT":"0.0000000000000","INCLINATION":"53.0542","REV_AT_EPOCH":"5998","MEAN_ELEMENT_THEORY":"SGP4","EPHEMERIS_TYPE":"0","CLASSIFICATION_TYPE":"U","OBJECT_TYPE":"PAYLOAD","RCS_SIZE":"LARGE"},{"OBJECT_TYPE":"PAYLOAD","RCS_SIZE":"LARGE","CLASSIFICATION_TYPE":"U","EPHEMERIS_TYPE":"0","REV_AT_EPOCH":"5994","MEAN_ELEMENT_THEORY":"SGP4","MEAN_MOTION_DDOT":"0.0000000000000","INCLINATION":"53.0551","APOAPSIS":"549.050","MEAN_ANOMALY":"144.3252","TLE_LINE1":"1 47600U 21009BE  22062.52737253  .00002592  00000-0  19280-3 0  9996","COUNTRY_CODE":"US","DECAY_DATE":null,"LAUNCH_DATE":"2021-02-04","REF_FRAME":"TEME","NORAD_CAT_ID":"47600","EPOCH":"2022-03-03T12:39:24.986592","PERIOD":"95.592","CENTER_NAME":"EARTH","TIME_SYSTEM":"UTC","RA_OF_ASC_NODE":"107.9783","ELEMENT_SET_NO":"999","ARG_OF_PERICENTER":"215.7557","SEMIMAJOR_AXIS":"6925.322","OBJECT_ID":"2021-009BE","FILE":"3342689","BSTAR":"0.00019280000000","OBJECT_NAME":"STARLINK-2005","ECCENTRICITY":"0.00026910","MEAN_MOTION_DOT":"0.00002592","SITE":"AFETR","PERIAPSIS":"545.323","GP_ID":"197706647","TLE_LINE2":"2 47600  53.0551 107.9783 0002691 215.7557 144.3252 15.06408789 59949","MEAN_MOTION":"15.06408789"},{"NORAD_CAT_ID":"47601","EPOCH":"2022-03-03T20:01:20.549568","CENTER_NAME":"EARTH","PERIOD":"95.592","TIME_SYSTEM":"UTC","ELEMENT_SET_NO":"999","RA_OF_ASC_NODE":"106.5998","RCS_SIZE":"LARGE","OBJECT_TYPE":"PAYLOAD","EPHEMERIS_TYPE":"0","CLASSIFICATION_TYPE":"U","MEAN_MOTION_DDOT":"0.0000000000000","INCLINATION":"53.0559","MEAN_ELEMENT_THEORY":"SGP4","REV_AT_EPOCH":"5998","MEAN_ANOMALY":"302.1813","TLE_LINE1":"1 47601U 21009BF  22062.83426562  .00001010  00000-0  86736-4 0  9994","REF_FRAME":"TEME","DECAY_DATE":null,"LAUNCH_DATE":"2021-02-04","COUNTRY_CODE":"US","APOAPSIS":"548.320","FILE":"3343255","BSTAR":"0.00008673600000","ECCENTRICITY":"0.00015790","MEAN_MOTION_DOT":"0.00001010","OBJECT_NAME":"STARLINK-2006","TLE_LINE2":"2 47601  53.0559 106.5998 0001579  57.9329 302.1813 15.06395810 59989","GP_ID":"197767815","PERIAPSIS":"546.133","SITE":"AFETR","MEAN_MOTION":"15.06395810","OBJECT_ID":"2021-009BF","SEMIMAJOR_AXIS":"6925.361","ARG_OF_PERICENTER":"57.9329"},{"INCLINATION":"53.0551","MEAN_MOTION_DDOT":"0.0000000000000","MEAN_ELEMENT_THEORY":"SGP4","REV_AT_EPOCH":"5979","TLE_LINE1":"1 47602U 21009BG  22062.52371687  .00001162  00000-0  96889-4 0  9996","DECAY_DATE":null,"COUNTRY_CODE":"US","LAUNCH_DATE":"2021-02-04","REF_FRAME":"TEME","MEAN_ANOMALY":"308.2152","APOAPSIS":"548.249","OBJECT_TYPE":"PAYLOAD","RCS_SIZE":"LARGE","EPHEMERIS_TYPE":"0","CLASSIFICATION_TYPE":"U","TIME_SYSTEM":"UTC","ELEMENT_SET_NO":"999","RA_OF_ASC_NODE":"117.9795","EPOCH":"2022-03-03T12:34:09.137568","NORAD_CAT_ID":"47602","CENTER_NAME":"EARTH","PERIOD":"95.592","OBJECT_ID":"2021-009BG","ARG_OF_PERICENTER":"51.8972","SEMIMAJOR_AXIS":"6925.347","GP_ID":"197707647","TLE_LINE2":"2 47602  53.0551 117.9795 0001497  51.8972 308.2152 15.06400410 59794","SITE":"AFETR","PERIAPSIS":"546.176","MEAN_MOTION":"15.06400410","BSTAR":"0.00009688900000","FILE":"3342689","ECCENTRICITY":"0.00014970","MEAN_MOTION_DOT":"0.00001162","OBJECT_NAME":"STARLINK-2007"}];
